{"type": "FeatureCollection", "features": [ {"type": "Feature", "properties": {"norad_id": 37966, "name": "COSMOS 2251 DEB", "group": "cosmos-2251-debris", "lat": 1.7643487749741495, "lon": -130.93946505097006, "alt_km": 531.6460457556104, "timestamp": "2025-12-13T16:48:33.107827+00:00", "meta": {"OBJECT_NAME": "COSMOS 2251 DEB", "OBJECT_ID": "1993-036BPR", "EPOCH": "2025-12-09T09:36:29.677536", "MEAN_MOTION": 15.12084932, "ECCENTRICITY": 0.0008975, "INCLINATION": 73.977, "RA_OF_ASC_NODE": 237.4896, "ARG_OF_PERICENTER": 112.4769, "MEAN_ANOMALY": 247.7375, "EPHEMERIS_TYPE": 0, "CLASSIFICATION_TYPE": "U", "NORAD_CAT_ID": 37966, "ELEMENT_SET_NO": 999, "REV_AT_EPOCH": 85292, "BSTAR": 0.003976161, "MEAN_MOTION_DOT": 0.00069139, "MEAN_MOTION_DDOT": 0}, "tle": {"line1": "1 37966U 93036BPR 25343.40034349  .00069139  00000+0  39762-2 0  9992", "line2": "2 37966  73.9770 237.4896 0008975 112.4769 247.7375 15.12084932852920"}}, "geometry": {"type": "Point", "coordinates": [-130.93946505097006, 1.7643487749741495]}}, {"type": "Feature", "properties": {"norad_id": 37967, "name": "COSMOS 2251 DEB", "group": "cosmos-2251-debris", "lat": 38.25029682474463, "lon": -57.456921505574805, "alt_km": 827.9676025315712, "timestamp": "2025-12-13T16:48:33.107838+00:00", "meta": {"OBJECT_NAME": "COSMOS 2251 DEB", "OBJECT_ID": "1993-036BPS", "EPOCH": "2025-12-12T16:48:51.802848", "MEAN_MOTION": 14.40515653, "ECCENTRICITY": 0.01509346, "INCLINATION": 74.0143, "RA_OF_ASC_NODE": 137.4555, "ARG_OF_PERICENTER": 276.2536, "MEAN_ANOMALY": 82.1445, "EPHEMERIS_TYPE": 0, "CLASSIFICATION_TYPE": "U", "NORAD_CAT_ID": 37967, "ELEMENT_SET_NO": 999, "REV_AT_EPOCH": 64735, "BSTAR": 0.0023064533, "MEAN_MOTION_DOT": 8.381e-05, "MEAN_MOTION_DDOT": 0}, "tle": {"line1": "1 37967U 93036BPS 25346.70059957  .00008381  00000+0  23065-2 0  9992", "line2": "2 37967  74.0143 137.4555 0150934 276.2536  82.1445 14.40515653647359"}}, "geometry": {"type": "Point", "coordinates": [-57.456921505574805, 38.25029682474463]}}, {"type": "Feature", "properties": {"norad_id": 37968, "name": "COSMOS 2251 DEB", "group": "cosmos-2251-debris", "lat": 37.223833948082536, "lon": 76.61027290527502, "alt_km": 586.2136710790583, "timestamp": "2025-12-13T16:48:33.107848+00:00", "meta": {"OBJECT_NAME": "COSMOS 2251 DEB", "OBJECT_ID": "1993-036BPT", "EPOCH": "2025-12-11T12:59:17.316096", "MEAN_MOTION": 15.00564949, "ECCENTRICITY": 0.00804869, "INCLINATION": 74.0004, "RA_OF_ASC_NODE": 273.6014, "ARG_OF_PERICENTER": 29.6293, "MEAN_ANOMALY": 330.9417, "EPHEMERIS_TYPE": 0, "CLASSIFICATION_TYPE": "U", "NORAD_CAT_ID": 37968, "ELEMENT_SET_NO": 999, "REV_AT_EPOCH": 60201, "BSTAR": 0.0015220746, "MEAN_MOTION_DOT": 0.00020602, "MEAN_MOTION_DDOT": 0}, "tle": {"line1": "1 37968U 93036BPT 25345.54117264  .00020602  00000+0  15221-2 0  9995", "line2": "2 37968  74.0004 273.6014 0080486  29.6293 330.9417 15.00564949602019"}}, "geometry": {"type": "Point", "coordinates": [76.61027290527502, 37.223833948082536]}}, {"type": "Feature", "properties": {"norad_id": 37971, "name": "COSMOS 2251 DEB", "group": "cosmos-2251-debris", "lat": -55.615458025387845, "lon": -115.26135144922152, "alt_km": 712.7532725053898, "timestamp": "2025-12-13T16:48:33.107858+00:00", "meta": {"OBJECT_NAME": "COSMOS 2251 DEB", "OBJECT_ID": "1993-036BPW", "EPOCH": "2025-12-11T10:40:32.065248", "MEAN_MOTION": 14.48615122, "ECCENTRICITY": 0.00674117, "INCLINATION": 73.9935, "RA_OF_ASC_NODE": 44.173, "ARG_OF_PERICENTER": 183.4136, "MEAN_ANOMALY": 176.6574, "EPHEMERIS_TYPE": 0, "CLASSIFICATION_TYPE": "U", "NORAD_CAT_ID": 37971, "ELEMENT_SET_NO": 999, "REV_AT_EPOCH": 60659, "BSTAR": 0.0043286348, "MEAN_MOTION_DOT": 0.00016772, "MEAN_MOTION_DDOT": 0}, "tle": {"line1": "1 37971U 93036BPW 25345.44481557  .00016772  00000+0  43286-2 0  9992", "line2": "2 37971  73.9935  44.1730 0067411 183.4136 176.6574 14.48615122606595"}}, "geometry": {"type": "Point", "coordinates": [-115.26135144922152, -55.615458025387845]}}, {"type": "Feature", "properties": {"norad_id": 37975, "name": "COSMOS 2251 DEB", "group": "cosmos-2251-debris", "lat": -37.96978011549978, "lon": 155.12377808309716, "alt_km": 648.791652027181, "timestamp": "2025-12-13T16:48:33.107868+00:00", "meta": {"OBJECT_NAME": "COSMOS 2251 DEB", "OBJECT_ID": "1993-036BQA", "EPOCH": "2025-12-11T15:00:34.783776", "MEAN_MOTION": 14.75964152, "ECCENTRICITY": 0.0096009, "INCLINATION": 74.0032, "RA_OF_ASC_NODE": 326.255, "ARG_OF_PERICENTER": 315.8702, "MEAN_ANOMALY": 43.4838, "EPHEMERIS_TYPE": 0, "CLASSIFICATION_TYPE": "U", "NORAD_CAT_ID": 37975, "ELEMENT_SET_NO": 999, "REV_AT_EPOCH": 69729, "BSTAR": 0.0059326203, "MEAN_MOTION_DOT": 0.00044255, "MEAN_MOTION_DDOT": 0}, "tle": {"line1": "1 37975U 93036BQA 25345.62540259  .00044255  00000+0  59326-2 0  9990", "line2": "2 37975  74.0032 326.2550 0096009 315.8702  43.4838 14.75964152697299"}}, "geometry": {"type": "Point", "coordinates": [155.12377808309716, -37.96978011549978]}}, {"type": "Feature", "properties": {"norad_id": 37978, "name": "COSMOS 2251 DEB", "group": "cosmos-2251-debris", "lat": 56.82942402120935, "lon": 112.830389293874, "alt_km": 284.60049721935866, "timestamp": "2025-12-13T16:48:33.107878+00:00", "meta": {"OBJECT_NAME": "COSMOS 2251 DEB", "OBJECT_ID": "1993-036BQD", "EPOCH": "2025-11-19T05:08:53.100672", "MEAN_MOTION": 15.61137081, "ECCENTRICITY": 0.00148985, "INCLINATION": 74.0238, "RA_OF_ASC_NODE": 142.2198, "ARG_OF_PERICENTER": 140.9849, "MEAN_ANOMALY": 219.2448, "EPHEMERIS_TYPE": 0, "CLASSIFICATION_TYPE": "U", "NORAD_CAT_ID": 37978, "ELEMENT_SET_NO": 999, "REV_AT_EPOCH": 8032, "BSTAR": 0.0043958825, "MEAN_MOTION_DOT": 0.0039117, "MEAN_MOTION_DDOT": 0}, "tle": {"line1": "1 37978U 93036BQD 25323.21450348  .00391170  00000+0  43959-2 0  9999", "line2": "2 37978  74.0238 142.2198 0014898 140.9849 219.2448 15.61137081 80328"}}, "geometry": {"type": "Point", "coordinates": [112.830389293874, 56.82942402120935]}}, {"type": "Feature", "properties": {"norad_id": 37985, "name": "COSMOS 2251 DEB", "group": "cosmos-2251-debris", "lat": 30.725720864555818, "lon": 74.17246921946597, "alt_km": 779.0981345494629, "timestamp": "2025-12-13T16:48:33.107888+00:00", "meta": {"OBJECT_NAME": "COSMOS 2251 DEB", "OBJECT_ID": "1993-036BQL", "EPOCH": "2025-12-10T12:51:29.994048", "MEAN_MOTION": 14.35481838, "ECCENTRICITY": 0.0020726, "INCLINATION": 74.0254, "RA_OF_ASC_NODE": 269.7813, "ARG_OF_PERICENTER": 33.1877, "MEAN_ANOMALY": 327.0571, "EPHEMERIS_TYPE": 0, "CLASSIFICATION_TYPE": "U", "NORAD_CAT_ID": 37985, "ELEMENT_SET_NO": 999, "REV_AT_EPOCH": 64885, "BSTAR": 9.1575e-05, "MEAN_MOTION_DOT": 2.38e-06, "MEAN_MOTION_DDOT": 0}, "tle": {"line1": "1 37985U 93036BQL 25344.53576382  .00000238  00000+0  91575-4 0  9993", "line2": "2 37985  74.0254 269.7813 0020726  33.1877 327.0571 14.35481838648859"}}, "geometry": {"type": "Point", "coordinates": [74.17246921946597, 30.725720864555818]}}, {"type": "Feature", "properties": {"norad_id": 37988, "name": "COSMOS 2251 DEB", "group": "cosmos-2251-debris", "lat": -73.01017798053601, "lon": -88.57228272583275, "alt_km": 712.1520517314348, "timestamp": "2025-12-13T16:48:33.107897+00:00", "meta": {"OBJECT_NAME": "COSMOS 2251 DEB", "OBJECT_ID": "1993-036BQP", "EPOCH": "2025-12-12T19:59:50.272800", "MEAN_MOTION": 14.68865789, "ECCENTRICITY": 0.00633705, "INCLINATION": 74.0635, "RA_OF_ASC_NODE": 23.8426, "ARG_OF_PERICENTER": 61.3937, "MEAN_ANOMALY": 299.3588, "EPHEMERIS_TYPE": 0, "CLASSIFICATION_TYPE": "U", "NORAD_CAT_ID": 37988, "ELEMENT_SET_NO": 999, "REV_AT_EPOCH": 23397, "BSTAR": 0.0011970616, "MEAN_MOTION_DOT": 7.19e-05, "MEAN_MOTION_DDOT": 0}, "tle": {"line1": "1 37988U 93036BQP 25346.83322075  .00007190  00000+0  11971-2 0  9993", "line2": "2 37988  74.0635  23.8426 0063370  61.3937 299.3588 14.68865789233975"}}, "geometry": {"type": "Point", "coordinates": [-88.57228272583275, -73.01017798053601]}}, {"type": "Feature", "properties": {"norad_id": 37993, "name": "COSMOS 2251 DEB", "group": "cosmos-2251-debris", "lat": 10.600803357650893, "lon": 168.15670378514284, "alt_km": 701.9522401437016, "timestamp": "2025-12-13T16:48:33.107907+00:00", "meta": {"OBJECT_NAME": "COSMOS 2251 DEB", "OBJECT_ID": "1993-036BQU", "EPOCH": "2025-12-09T05:51:24.736320", "MEAN_MOTION": 14.59845478, "ECCENTRICITY": 0.0022054, "INCLINATION": 74.0217, "RA_OF_ASC_NODE": 173.5884, "ARG_OF_PERICENTER": 262.4751, "MEAN_ANOMALY": 97.3909, "EPHEMERIS_TYPE": 0, "CLASSIFICATION_TYPE": "U", "NORAD_CAT_ID": 37993, "ELEMENT_SET_NO": 999, "REV_AT_EPOCH": 65266, "BSTAR": 0.0017274, "MEAN_MOTION_DOT": 8.27e-05, "MEAN_MOTION_DDOT": 0}, "tle": {"line1": "1 37993U 93036BQU 25343.24403630  .00008270  00000+0  17274-2 0  9990", "line2": "2 37993  74.0217 173.5884 0022054 262.4751  97.3909 14.59845478652667"}}, "geometry": {"type": "Point", "coordinates": [168.15670378514284, 10.600803357650893]}}, {"type": "Feature", "properties": {"norad_id": 37994, "name": "COSMOS 2251 DEB", "group": "cosmos-2251-debris", "lat": 27.22692331535997, "lon": -77.61550777079167, "alt_km": 744.9277241424998, "timestamp": "2025-12-13T16:48:33.107927+00:00", "meta": {"OBJECT_NAME": "COSMOS 2251 DEB", "OBJECT_ID": "1993-036BQV", "EPOCH": "2025-12-12T20:39:53.823168", "MEAN_MOTION": 14.3962412, "ECCENTRICITY": 0.00229211, "INCLINATION": 74.0362, "RA_OF_ASC_NODE": 275.4644, "ARG_OF_PERICENTER": 354.874, "MEAN_ANOMALY": 5.2177, "EPHEMERIS_TYPE": 0, "CLASSIFICATION_TYPE": "U", "NORAD_CAT_ID": 37994, "ELEMENT_SET_NO": 999, "REV_AT_EPOCH": 77066, "BSTAR": 0.0005708596, "MEAN_MOTION_DOT": 1.764e-05, "MEAN_MOTION_DDOT": 0}, "tle": {"line1": "1 37994U 93036BQV 25346.86103962  .00001764  00000+0  57086-3 0  9994", "line2": "2 37994  74.0362 275.4644 0022921 354.8740   5.2177 14.39624120770665"}}, "geometry": {"type": "Point", "coordinates": [-77.61550777079167, 27.22692331535997]}}]}